[{"OBJECT_NAME":"STARLINK-34738","OBJECT_ID":"2025-158V","EPOCH":"2026-03-09T14:06:40.368672","MEAN_MOTION":15.0564453,"ECCENTRICITY":0.0001715,"INCLINATION":97.6013,"RA_OF_ASC_NODE":294.0356,"ARG_OF_PERICENTER":97.9225,"MEAN_ANOMALY":262.2197,"EPHEMERIS_TYPE":0,"CLASSIFICATION_TYPE":"U","NORAD_CAT_ID":64951,"ELEMENT_SET_NO":999,"REV_AT_EPOCH":3534,"BSTAR":0.00022451,"MEAN_MOTION_DOT":3.18e-5,"MEAN_MOTION_DDOT":0},{"OBJECT_NAME":"COSMOS 397 DEB","OBJECT_ID":"1971-015U","EPOCH":"2026-03-09T13:29:42.554976","MEAN_MOTION":14.46444927,"ECCENTRICITY":0.0335899,"INCLINATION":65.6875,"RA_OF_ASC_NODE":135.6369,"ARG_OF_PERICENTER":212.43,"MEAN_ANOMALY":145.5762,"EPHEMERIS_TYPE":0,"CLASSIFICATION_TYPE":"U","NORAD_CAT_ID":5094,"ELEMENT_SET_NO":999,"REV_AT_EPOCH":67470,"BSTAR":0.0028972,"MEAN_MOTION_DOT":0.00021188,"MEAN_MOTION_DDOT":0}]
